{
  "norad_id": 67729,
  "name": "STARLINK-36751",
  "history": [
    {
      "epoch": "2026-03-28T17:29:56.461344Z",
      "apogee_km": 466.3938523089282,
      "perigee_km": 464.67130067652397,
      "latitude_deg": 1.3723684214591725e-05,
      "longitude_deg": 53.43074770204848,
      "height_km": 468.6290309586962,
      "semi_major_axis_km": 6843.669576492725,
      "eccentricity": 0.00012585,
      "inclination_deg": 97.2861,
      "raan_deg": 142.0614,
      "arg_perigee_deg": 89.0995,
      "mean_anomaly_deg": 271.0392,
      "mean_motion_rev_day": 15.33448562
    },
    {
      "epoch": "2026-03-29T02:53:44.863296Z",
      "apogee_km": 465.9891504491752,
      "perigee_km": 465.0693617043589,
      "latitude_deg": 5.915778902532979e-05,
      "longitude_deg": -87.51994489234266,
      "height_km": 468.5300957982758,
      "semi_major_axis_km": 6843.666256076767,
      "eccentricity": 6.72e-05,
      "inclination_deg": 97.2865,
      "raan_deg": 142.4483,
      "arg_perigee_deg": 76.1499,
      "mean_anomaly_deg": 283.9819,
      "mean_motion_rev_day": 15.33449678
    },
    {
      "epoch": "2026-03-30T02:23:15.720000Z",
      "apogee_km": 466.44730008899205,
      "perigee_km": 464.57350942956873,
      "latitude_deg": -1.9471524422783892e-05,
      "longitude_deg": -79.8998821751133,
      "height_km": 468.6855757106671,
      "semi_major_axis_km": 6843.64740475928,
      "eccentricity": 0.0001369,
      "inclination_deg": 97.2834,
      "raan_deg": 143.4117,
      "arg_perigee_deg": 93.9936,
      "mean_anomaly_deg": 266.1463,
      "mean_motion_rev_day": 15.33456014
    },
    {
      "epoch": "2026-03-30T02:23:15.720864Z",
      "apogee_km": 466.4473685254652,
      "perigee_km": 464.57344099309466,
      "latitude_deg": -2.0617347242849976e-05,
      "longitude_deg": -79.89988563933204,
      "height_km": 468.6855804788734,
      "semi_major_axis_km": 6843.64740475928,
      "eccentricity": 0.00013691,
      "inclination_deg": 97.2834,
      "raan_deg": 143.4117,
      "arg_perigee_deg": 93.9936,
      "mean_anomaly_deg": 266.1463,
      "mean_motion_rev_day": 15.33456014
    },
    {
      "epoch": "2026-03-30T13:21:02.165184Z",
      "apogee_km": 465.96246658406744,
      "perigee_km": 465.02639467698464,
      "latitude_deg": 1.4288147688753907e-05,
      "longitude_deg": 115.65656209740449,
      "height_km": 468.35541555047763,
      "semi_major_axis_km": 6843.631430630526,
      "eccentricity": 6.839e-05,
      "inclination_deg": 97.2858,
      "raan_deg": 143.8619,
      "arg_perigee_deg": 57.7034,
      "mean_anomaly_deg": 302.4275,
      "mean_motion_rev_day": 15.33461383
    },
    {
      "epoch": "2026-03-30T21:10:52.720896Z",
      "apogee_km": 466.4419245314466,
      "perigee_km": 464.62000324610017,
      "latitude_deg": 8.091918918398953e-05,
      "longitude_deg": -1.8026906233542306,
      "height_km": 468.6273456440504,
      "semi_major_axis_km": 6843.667963888774,
      "eccentricity": 0.00013311,
      "inclination_deg": 97.2838,
      "raan_deg": 144.1849,
      "arg_perigee_deg": 89.1481,
      "mean_anomaly_deg": 270.9915,
      "mean_motion_rev_day": 15.33449104
    },
    {
      "epoch": "2026-03-31T20:40:23.866176Z",
      "apogee_km": 466.5657844606849,
      "perigee_km": 464.4552035735296,
      "latitude_deg": 5.229209053920146e-05,
      "longitude_deg": 5.81866082456566,
      "height_km": 468.8686216171388,
      "semi_major_axis_km": 6843.6474940171065,
      "eccentricity": 0.0001542,
      "inclination_deg": 97.2861,
      "raan_deg": 145.1508,
      "arg_perigee_deg": 103.6186,
      "mean_anomaly_deg": 256.5229,
      "mean_motion_rev_day": 15.33455984
    },
    {
      "epoch": "2026-04-01T02:56:15.998496Z",
      "apogee_km": 466.6385460834026,
      "perigee_km": 464.35332017437213,
      "latitude_deg": -4.542782907921128e-05,
      "longitude_deg": -88.14861750786727,
      "height_km": 468.793259388896,
      "semi_major_axis_km": 6843.632933128887,
      "eccentricity": 0.00016696,
      "inclination_deg": 97.2838,
      "raan_deg": 145.408,
      "arg_perigee_deg": 99.4628,
      "mean_anomaly_deg": 260.6803,
      "mean_motion_rev_day": 15.33460878
    },
    {
      "epoch": "2026-04-02T14:57:30.896064Z",
      "apogee_km": 466.0022935467168,
      "perigee_km": 464.9858774578979,
      "latitude_deg": -2.6959918404960657e-05,
      "longitude_deg": 91.53828657196286,
      "height_km": 468.81450214966395,
      "semi_major_axis_km": 6843.631085502307,
      "eccentricity": 7.426e-05,
      "inclination_deg": 97.2859,
      "raan_deg": 146.8863,
      "arg_perigee_deg": 114.3338,
      "mean_anomaly_deg": 245.7982,
      "mean_motion_rev_day": 15.33461499
    },
    {
      "epoch": "2026-04-02T21:13:23.362752Z",
      "apogee_km": 466.721596736601,
      "perigee_km": 464.24311155130454,
      "latitude_deg": -9.020350003681314e-06,
      "longitude_deg": -2.431303642725079,
      "height_km": 468.5549272741234,
      "semi_major_axis_km": 6843.6193541439525,
      "eccentricity": 0.00018108,
      "inclination_deg": 97.2829,
      "raan_deg": 147.1426,
      "arg_perigee_deg": 88.3078,
      "mean_anomaly_deg": 271.8372,
      "mean_motion_rev_day": 15.33465442
    },
    {
      "epoch": "2026-04-03T17:34:58.446624Z",
      "apogee_km": 466.7591959116762,
      "perigee_km": 464.4501174767074,
      "latitude_deg": -4.9802206323105324e-05,
      "longitude_deg": 52.17377372937965,
      "height_km": 468.6344343030719,
      "semi_major_axis_km": 6843.741656694192,
      "eccentricity": 0.0001687,
      "inclination_deg": 97.2837,
      "raan_deg": 147.98,
      "arg_perigee_deg": 86.0502,
      "mean_anomaly_deg": 274.0933,
      "mean_motion_rev_day": 15.33424336
    },
    {
      "epoch": "2026-04-04T17:04:29.565984Z",
      "apogee_km": 466.52437995178207,
      "perigee_km": 464.4836062076456,
      "latitude_deg": 5.8694854136076406e-05,
      "longitude_deg": 59.79341400502,
      "height_km": 468.5758536690174,
      "semi_major_axis_km": 6843.640993079714,
      "eccentricity": 0.0001491,
      "inclination_deg": 97.2831,
      "raan_deg": 148.9441,
      "arg_perigee_deg": 87.8754,
      "mean_anomaly_deg": 272.266,
      "mean_motion_rev_day": 15.33458169
    },
    {
      "epoch": "2026-04-05T10:18:08.445888Z",
      "apogee_km": 466.6584747138095,
      "perigee_km": 464.4401622305395,
      "latitude_deg": 6.633238977893848e-05,
      "longitude_deg": 161.38180547507113,
      "height_km": 468.6878132208183,
      "semi_major_axis_km": 6843.686318472174,
      "eccentricity": 0.00016207,
      "inclination_deg": 97.2843,
      "raan_deg": 149.652,
      "arg_perigee_deg": 91.5017,
      "mean_anomaly_deg": 268.6412,
      "mean_motion_rev_day": 15.33442935
    }
  ]
}